start=new Date('2022-05-07T00:00:00.000Z').valueOf();
sats=[{"FILE":"3432208","TLE_LINE2":"2 50812  53.2130 337.9114 0001604  57.1210 232.2891 15.08843769  3659","EPOCH":"2022-05-06T14:00:01.000224","SITE":"AFETR","ELEMENT_SET_NO":"999","REF_FRAME":"TEME","SEMIMAJOR_AXIS":"6917.869","ECCENTRICITY":"0.00016040","GP_ID":"202863530","MEAN_MOTION":"15.08843769","CENTER_NAME":"EARTH","MEAN_ANOMALY":"232.2891","OBJECT_TYPE":"PAYLOAD","RCS_SIZE":"LARGE","CLASSIFICATION_TYPE":"U","OBJECT_NAME":"STARLINK-3338","BSTAR":"0.00039883000000","LAUNCH_DATE":"2022-01-06","RA_OF_ASC_NODE":"337.9114","PERIOD":"95.437","EPHEMERIS_TYPE":"0","INCLINATION":"53.2130","DECAY_DATE":null,"COUNTRY_CODE":"US","REV_AT_EPOCH":"365","APOAPSIS":"540.843","TIME_SYSTEM":"UTC","MEAN_ELEMENT_THEORY":"SGP4","TLE_LINE1":"1 50812U 22001K   22126.58334491  .00006066  00000-0  39883-3 0  9993","MEAN_MOTION_DDOT":"0.0000000000000","MEAN_MOTION_DOT":"0.00006066","OBJECT_ID":"2022-001K","NORAD_CAT_ID":"50812","ARG_OF_PERICENTER":"57.1210","PERIAPSIS":"538.624"},{"LAUNCH_DATE":"2022-01-06","RA_OF_ASC_NODE":"336.4011","BSTAR":"0.00223850000000","OBJECT_NAME":"STARLINK-3349","RCS_SIZE":"LARGE","CLASSIFICATION_TYPE":"U","INCLINATION":"53.2207","PERIOD":"95.439","EPHEMERIS_TYPE":"0","REV_AT_EPOCH":"2002","DECAY_DATE":null,"COUNTRY_CODE":"US","PERIAPSIS":"538.516","ARG_OF_PERICENTER":"44.6965","TLE_LINE1":"1 50813U 22001L   22126.91667824  .00035489  00000-0  22385-2 0  9999","MEAN_MOTION_DOT":"0.00035489","MEAN_MOTION_DDOT":"0.0000000000000","NORAD_CAT_ID":"50813","OBJECT_ID":"2022-001L","TIME_SYSTEM":"UTC","APOAPSIS":"541.152","MEAN_ELEMENT_THEORY":"SGP4","FILE":"3432455","REF_FRAME":"TEME","TLE_LINE2":"2 50813  53.2207 336.4011 0001905  44.6965  76.2082 15.08811061 20025","EPOCH":"2022-05-06T22:00:00.999936","ELEMENT_SET_NO":"999","SITE":"AFETR","MEAN_MOTION":"15.08811061","CENTER_NAME":"EARTH","ECCENTRICITY":"0.00019050","GP_ID":"202870027","SEMIMAJOR_AXIS":"6917.969","OBJECT_TYPE":"PAYLOAD","MEAN_ANOMALY":"76.2082"},{"FILE":"3432208","EPOCH":"2022-05-06T14:00:01.000224","TLE_LINE2":"2 50814  53.2163 347.8933 0001623  70.1302 149.4885 15.08848440  3613","ELEMENT_SET_NO":"999","SITE":"AFETR","REF_FRAME":"TEME","SEMIMAJOR_AXIS":"6917.855","ECCENTRICITY":"0.00016230","GP_ID":"202862556","MEAN_MOTION":"15.08848440","CENTER_NAME":"EARTH","MEAN_ANOMALY":"149.4885","OBJECT_TYPE":"PAYLOAD","CLASSIFICATION_TYPE":"U","RCS_SIZE":"LARGE","OBJECT_NAME":"STARLINK-3324","BSTAR":"-0.00072344000000","LAUNCH_DATE":"2022-01-06","RA_OF_ASC_NODE":"347.8933","PERIOD":"95.437","EPHEMERIS_TYPE":"0","INCLINATION":"53.2163","DECAY_DATE":null,"COUNTRY_CODE":"US","REV_AT_EPOCH":"361","APOAPSIS":"540.842","TIME_SYSTEM":"UTC","MEAN_ELEMENT_THEORY":"SGP4","TLE_LINE1":"1 50814U 22001M   22126.58334491 -.00011786  00000-0 -72344-3 0  9991","OBJECT_ID":"2022-001M","MEAN_MOTION_DDOT":"0.0000000000000","MEAN_MOTION_DOT":"-0.00011786","NORAD_CAT_ID":"50814","ARG_OF_PERICENTER":"70.1302","PERIAPSIS":"538.597"},{"SEMIMAJOR_AXIS":"6917.882","ECCENTRICITY":"0.00016340","GP_ID":"202863305","MEAN_MOTION":"15.08839516","CENTER_NAME":"EARTH","MEAN_ANOMALY":"109.8693","OBJECT_TYPE":"PAYLOAD","FILE":"3432208","TLE_LINE2":"2 50815  53.2165 347.8927 0001634  49.7411 109.8693 15.08839516  3615","EPOCH":"2022-05-06T14:00:01.000224","SITE":"AFETR","ELEMENT_SET_NO":"999","REF_FRAME":"TEME","DECAY_DATE":null,"COUNTRY_CODE":"US","REV_AT_EPOCH":"361","TIME_SYSTEM":"UTC","APOAPSIS":"540.877","MEAN_ELEMENT_THEORY":"SGP4","TLE_LINE1":"1 50815U 22001N   22126.58334491  .00015661  00000-0  99989-3 0  9990","OBJECT_ID":"2022-001N","MEAN_MOTION_DDOT":"0.0000000000000","MEAN_MOTION_DOT":"0.00015661","NORAD_CAT_ID":"50815","ARG_OF_PERICENTER":"49.7411","PERIAPSIS":"538.616","CLASSIFICATION_TYPE":"U","RCS_SIZE":"LARGE","OBJECT_NAME":"STARLINK-3234","BSTAR":"0.00099989000000","LAUNCH_DATE":"2022-01-06","RA_OF_ASC_NODE":"347.8927","PERIOD":"95.438","EPHEMERIS_TYPE":"0","INCLINATION":"53.2165"},{"FILE":"3432208","REF_FRAME":"TEME","EPOCH":"2022-05-06T14:00:01.000224","TLE_LINE2":"2 50816  53.2170 347.9161 0001470  52.2091 267.3946 15.08824459  3615","SITE":"AFETR","ELEMENT_SET_NO":"999","ECCENTRICITY":"0.00014700","GP_ID":"202864031","SEMIMAJOR_AXIS":"6917.928","MEAN_MOTION":"15.08824459","CENTER_NAME":"EARTH","MEAN_ANOMALY":"267.3946","OBJECT_TYPE":"PAYLOAD","OBJECT_NAME":"STARLINK-3342","RCS_SIZE":"LARGE","CLASSIFICATION_TYPE":"U","LAUNCH_DATE":"2022-01-06","RA_OF_ASC_NODE":"347.9161","BSTAR":"0.00247840000000","INCLINATION":"53.2170","PERIOD":"95.439","EPHEMERIS_TYPE":"0","DECAY_DATE":null,"COUNTRY_CODE":"US","REV_AT_EPOCH":"361","TLE_LINE1":"1 50816U 22001P   22126.58334491  .00039359  00000-0  24784-2 0  9991","MEAN_MOTION_DOT":"0.00039359","MEAN_MOTION_DDOT":"0.0000000000000","OBJECT_ID":"2022-001P","NORAD_CAT_ID":"50816","TIME_SYSTEM":"UTC","APOAPSIS":"540.810","MEAN_ELEMENT_THEORY":"SGP4","PERIAPSIS":"538.776","ARG_OF_PERICENTER":"52.2091"},{"FILE":"3432208","EPOCH":"2022-05-06T14:00:01.000224","TLE_LINE2":"2 50817  53.2177 347.8968 0001705  56.3219 123.2822 15.08827553  3627","ELEMENT_SET_NO":"999","SITE":"AFETR","REF_FRAME":"TEME","MEAN_MOTION":"15.08827553","CENTER_NAME":"EARTH","SEMIMAJOR_AXIS":"6917.918","ECCENTRICITY":"0.00017050","GP_ID":"202862304","OBJECT_TYPE":"PAYLOAD","MEAN_ANOMALY":"123.2822","BSTAR":"0.00223610000000","LAUNCH_DATE":"2022-01-06","RA_OF_ASC_NODE":"347.8968","CLASSIFICATION_TYPE":"U","RCS_SIZE":"LARGE","OBJECT_NAME":"STARLINK-3341","PERIOD":"95.438","EPHEMERIS_TYPE":"0","INCLINATION":"53.2177","REV_AT_EPOCH":"362","DECAY_DATE":null,"COUNTRY_CODE":"US","ARG_OF_PERICENTER":"56.3219","PERIAPSIS":"538.604","APOAPSIS":"540.963","TIME_SYSTEM":"UTC","MEAN_ELEMENT_THEORY":"SGP4","TLE_LINE1":"1 50817U 22001Q   22126.58334491  .00035467  00000-0  22361-2 0  9997","MEAN_MOTION_DOT":"0.00035467","MEAN_MOTION_DDOT":"0.0000000000000","NORAD_CAT_ID":"50817","OBJECT_ID":"2022-001Q"},{"ELEMENT_SET_NO":"999","SITE":"AFETR","EPOCH":"2022-05-06T14:00:01.000224","TLE_LINE2":"2 50818  53.2155 347.9112 0001719  50.2387 229.3584 15.08840761  3607","REF_FRAME":"TEME","FILE":"3432208","MEAN_ANOMALY":"229.3584","OBJECT_TYPE":"PAYLOAD","SEMIMAJOR_AXIS":"6917.878","GP_ID":"202863057","ECCENTRICITY":"0.00017190","CENTER_NAME":"EARTH","MEAN_MOTION":"15.08840761","EPHEMERIS_TYPE":"0","PERIOD":"95.438","INCLINATION":"53.2155","CLASSIFICATION_TYPE":"U","RCS_SIZE":"LARGE","OBJECT_NAME":"STARLINK-3336","BSTAR":"0.00086784000000","RA_OF_ASC_NODE":"347.9112","LAUNCH_DATE":"2022-01-06","MEAN_ELEMENT_THEORY":"SGP4","TIME_SYSTEM":"UTC","APOAPSIS":"540.932","NORAD_CAT_ID":"50818","MEAN_MOTION_DDOT":"0.0000000000000","MEAN_MOTION_DOT":"0.00013551","OBJECT_ID":"2022-001R","TLE_LINE1":"1 50818U 22001R   22126.58334491  .00013551  00000-0  86784-3 0  9998","ARG_OF_PERICENTER":"50.2387","PERIAPSIS":"538.554","COUNTRY_CODE":"US","DECAY_DATE":null,"REV_AT_EPOCH":"360"},{"FILE":"3432208","TLE_LINE2":"2 50819  53.2162 347.8921 0001593  79.0657 160.5569 15.08841929  3619","EPOCH":"2022-05-06T14:00:01.000224","SITE":"AFETR","ELEMENT_SET_NO":"999","REF_FRAME":"TEME","SEMIMAJOR_AXIS":"6917.874","ECCENTRICITY":"0.00015930","GP_ID":"202863806","MEAN_MOTION":"15.08841929","CENTER_NAME":"EARTH","MEAN_ANOMALY":"160.5569","OBJECT_TYPE":"PAYLOAD","RCS_SIZE":"LARGE","CLASSIFICATION_TYPE":"U","OBJECT_NAME":"STARLINK-3327","BSTAR":"-0.00049374000000","LAUNCH_DATE":"2022-01-06","RA_OF_ASC_NODE":"347.8921","PERIOD":"95.437","EPHEMERIS_TYPE":"0","INCLINATION":"53.2162","DECAY_DATE":null,"COUNTRY_CODE":"US","REV_AT_EPOCH":"361","APOAPSIS":"540.842","TIME_SYSTEM":"UTC","MEAN_ELEMENT_THEORY":"SGP4","TLE_LINE1":"1 50819U 22001S   22126.58334491 -.00008138  00000-0 -49374-3 0  9990","MEAN_MOTION_DOT":"-0.00008138","MEAN_MOTION_DDOT":"0.0000000000000","NORAD_CAT_ID":"50819","OBJECT_ID":"2022-001S","ARG_OF_PERICENTER":"79.0657","PERIAPSIS":"538.637"},{"FILE":"3432208","EPOCH":"2022-05-06T14:00:01.000224","TLE_LINE2":"2 50820  53.2172 347.9156 0001731  59.3408 280.2804 15.08840092  3614","SITE":"AFETR","ELEMENT_SET_NO":"999","REF_FRAME":"TEME","SEMIMAJOR_AXIS":"6917.880","ECCENTRICITY":"0.00017310","GP_ID":"202863531","MEAN_MOTION":"15.08840092","CENTER_NAME":"EARTH","MEAN_ANOMALY":"280.2804","OBJECT_TYPE":"PAYLOAD","RCS_SIZE":"LARGE","CLASSIFICATION_TYPE":"U","OBJECT_NAME":"STARLINK-3339","BSTAR":"-0.00020861000000","LAUNCH_DATE":"2022-01-06","RA_OF_ASC_NODE":"347.9156","PERIOD":"95.438","EPHEMERIS_TYPE":"0","INCLINATION":"53.2172","DECAY_DATE":null,"COUNTRY_CODE":"US","REV_AT_EPOCH":"361","TIME_SYSTEM":"UTC","APOAPSIS":"540.943","MEAN_ELEMENT_THEORY":"SGP4","TLE_LINE1":"1 50820U 22001T   22126.58334491 -.00003607  00000-0 -20861-3 0  9998","MEAN_MOTION_DDOT":"0.0000000000000","MEAN_MOTION_DOT":"-0.00003607","OBJECT_ID":"2022-001T","NORAD_CAT_ID":"50820","ARG_OF_PERICENTER":"59.3408","PERIAPSIS":"538.548"},{"INCLINATION":"53.2193","PERIOD":"95.438","EPHEMERIS_TYPE":"0","LAUNCH_DATE":"2022-01-06","RA_OF_ASC_NODE":"347.9149","BSTAR":"0.00229510000000","OBJECT_NAME":"STARLINK-3346","CLASSIFICATION_TYPE":"U","RCS_SIZE":"LARGE","PERIAPSIS":"538.512","ARG_OF_PERICENTER":"53.5482","TLE_LINE1":"1 50821U 22001U   22126.58334491  .00036414  00000-0  22951-2 0  9990","MEAN_MOTION_DDOT":"0.0000000000000","NORAD_CAT_ID":"50821","MEAN_MOTION_DOT":"0.00036414","OBJECT_ID":"2022-001U","APOAPSIS":"541.066","TIME_SYSTEM":"UTC","MEAN_ELEMENT_THEORY":"SGP4","REV_AT_EPOCH":"362","DECAY_DATE":null,"COUNTRY_CODE":"US","REF_FRAME":"TEME","EPOCH":"2022-05-06T14:00:01.000224","TLE_LINE2":"2 50821  53.2193 347.9149 0001846  53.5482   6.0557 15.08825777  3628","SITE":"AFETR","ELEMENT_SET_NO":"999","FILE":"3432208","OBJECT_TYPE":"PAYLOAD","MEAN_ANOMALY":"6.0557","MEAN_MOTION":"15.08825777","CENTER_NAME":"EARTH","ECCENTRICITY":"0.00018460","GP_ID":"202862805","SEMIMAJOR_AXIS":"6917.924"}];
